NPRI Number	Facility Name	Company Name	Province	City	Address	Postal Code	Rural Address	NAICS Name	NAICS Data Link	2011 Hg Emissions (kg)	2011 Cr(VI) Emissions (kg)	NPRI Data Link 	NAICS2	NAICS3	NAICS4	Latitude	Longitude
0000000223	Peace River Pulp Division	Daishowa-Marubeni International Ltd-Peace River Pulp	Alberta	Md of Northern Lights	11/13/24-085-21-W5	T8S1V7	0	Chemical Pulp Mills	http://stds.statcan.gc.ca/naics-scian/2007/cs-rc-eng.asp?criteria=322112	9.61	6.35	http://www.ec.gc.ca/inrp-npri/donnees-data/index.cfm?do=facility_substance_summary&amp;amp;amp;lang=En&amp;amp;amp;opt_npri_id=0000000223&amp;amp;amp;opt_report_year=2011	32	322	3221	56.37720000	-117.17560000
0000000267	Genesee Thermal Generating Station	Capital Power Generation Services Inc.	Alberta	Warburg	50444 Highway 770	T0C2T0	0	Fossil-Fuel Electric Power Generation	http://stds.statcan.gc.ca/naics-scian/2007/cs-rc-eng.asp?criteria=221112	56.15	-99.00	http://www.ec.gc.ca/inrp-npri/donnees-data/index.cfm?do=facility_substance_summary&amp;amp;amp;lang=En&amp;amp;amp;opt_npri_id=0000000267&amp;amp;amp;opt_report_year=2011	22	221	2211	53.34400000	-114.30500000
0000000442	Cold Lake Heavy Oil Plants	Imperial Oil Resources	Alberta	Grande Centre		T0A1T0	0	Non-Conventional Oil Extraction	http://stds.statcan.gc.ca/naics-scian/2007/cs-rc-eng.asp?criteria=211114	7.32	-99.00	http://www.ec.gc.ca/inrp-npri/donnees-data/index.cfm?do=facility_substance_summary&amp;amp;amp;lang=En&amp;amp;amp;opt_npri_id=0000000442&amp;amp;amp;opt_report_year=2011	21	211	2111	54.59640000	-110.39500000
0000001033	Battle River Generating Station	Alberta Power (2000) Ltd.	Alberta	Forestburg	Box 498	T0B1N0	0	Fossil-Fuel Electric Power Generation	http://stds.statcan.gc.ca/naics-scian/2007/cs-rc-eng.asp?criteria=221112	48.06	-99.00	http://www.ec.gc.ca/inrp-npri/donnees-data/index.cfm?do=facility_substance_summary&amp;amp;amp;lang=En&amp;amp;amp;opt_npri_id=0000001033&amp;amp;amp;opt_report_year=2011	22	221	2211	52.56470000	-112.14140000
0000001036	Sheerness Generating Station	Alberta Power (2000) Ltd.	Alberta	Hanna	Box 1540	T0J1P0	0	Fossil-Fuel Electric Power Generation	http://stds.statcan.gc.ca/naics-scian/2007/cs-rc-eng.asp?criteria=221112	33.14	-99.00	http://www.ec.gc.ca/inrp-npri/donnees-data/index.cfm?do=facility_substance_summary&amp;amp;amp;lang=En&amp;amp;amp;opt_npri_id=0000001036&amp;amp;amp;opt_report_year=2011	22	221	2211	51.53170000	-111.78610000
0000001039	H.R.Milner Generating Station	Milner Power Limited Partnership By Its Gp Milner Power Inc.	Alberta	Grande Cache	40 Highway North	T0E0Y0	0	Fossil-Fuel Electric Power Generation	http://stds.statcan.gc.ca/naics-scian/2007/cs-rc-eng.asp?criteria=221112	3.30	-99.00	http://www.ec.gc.ca/inrp-npri/donnees-data/index.cfm?do=facility_substance_summary&amp;amp;amp;lang=En&amp;amp;amp;opt_npri_id=0000001039&amp;amp;amp;opt_report_year=2011	22	221	2211	54.00710000	-119.10400000
0000001042	Swan Hills Treatment Center	Sena Waste Services	Alberta	Swan Hills	10000 Chrystina Lake Road	T0G2C0	0	Waste Treatment & Disposal	http://stds.statcan.gc.ca/naics-scian/2007/cs-rc-eng.asp?criteria=562210	51.31	-99.00	http://www.ec.gc.ca/inrp-npri/donnees-data/index.cfm?do=facility_substance_summary&amp;amp;amp;lang=En&amp;amp;amp;opt_npri_id=0000001042&amp;amp;amp;opt_report_year=2011	56	562	5622	54.77500000	-115.21860000
0000001106	Altasteel	Altasteel Ltd.	Alberta	Edmonton	9401 34th Street	T6B2X6	0	Iron & Steel Mills & Ferro-Alloy Mfg.	http://stds.statcan.gc.ca/naics-scian/2007/cs-rc-eng.asp?criteria=331110	11.35	17.30	http://www.ec.gc.ca/inrp-npri/donnees-data/index.cfm?do=facility_substance_summary&amp;amp;amp;lang=En&amp;amp;amp;opt_npri_id=0000001106&amp;amp;amp;opt_report_year=2011	33	331	3311	53.52910000	-113.38750000
0000002230	Suncor Energy Inc. Oil Sands	Suncor Energy Oil Sands Limited Partnership	Alberta	Fort McMurray	Hwy 63n Highway	T9H3E3	0	Non-Conventional Oil Extraction	http://stds.statcan.gc.ca/naics-scian/2007/cs-rc-eng.asp?criteria=211114	36.57	-99.00	http://www.ec.gc.ca/inrp-npri/donnees-data/index.cfm?do=facility_substance_summary&amp;amp;amp;lang=En&amp;amp;amp;opt_npri_id=0000002230&amp;amp;amp;opt_report_year=2011	21	211	2111	57.00330000	-111.46610000
0000002274	Mildred Lake Plant Site	Syncrude Canada Ltd.	Alberta	Fort McMurray	Mildred Lake	T9H3L1	0	Non-Conventional Oil Extraction	http://stds.statcan.gc.ca/naics-scian/2007/cs-rc-eng.asp?criteria=211114	14.89	-99.00	http://www.ec.gc.ca/inrp-npri/donnees-data/index.cfm?do=facility_substance_summary&amp;amp;amp;lang=En&amp;amp;amp;opt_npri_id=0000002274&amp;amp;amp;opt_report_year=2011	21	211	2111	57.04050000	-111.61920000
0000002284	Sundance Thermal Electric Power Generating Plant	TransAlta Generation Partnership	Alberta	Duffield	Site 4, Box 1, RR1	T0E0N1	0	Fossil-Fuel Electric Power Generation	http://stds.statcan.gc.ca/naics-scian/2007/cs-rc-eng.asp?criteria=221112	56.23	240.63	http://www.ec.gc.ca/inrp-npri/donnees-data/index.cfm?do=facility_substance_summary&amp;amp;amp;lang=En&amp;amp;amp;opt_npri_id=0000002284&amp;amp;amp;opt_report_year=2011	22	221	2211	53.50850000	-114.55710000
0000002286	Keephills Thermal Electric Power Generating Plant	TransAlta Generation Partnership	Alberta	Duffield	Site 3, Box 1, RR1	T0E0N0	0	Fossil-Fuel Electric Power Generation	http://stds.statcan.gc.ca/naics-scian/2007/cs-rc-eng.asp?criteria=221112	18.95	161.25	http://www.ec.gc.ca/inrp-npri/donnees-data/index.cfm?do=facility_substance_summary&amp;amp;amp;lang=En&amp;amp;amp;opt_npri_id=0000002286&amp;amp;amp;opt_report_year=2011	22	221	2211	53.44870000	-114.44910000
0000002991	Hinton Pulp	West Fraser Mills Ltd.	Alberta	Hinton	760 Switzer Drive	T7V1V7	0	Chemical Pulp Mills	http://stds.statcan.gc.ca/naics-scian/2007/cs-rc-eng.asp?criteria=322112	0.94	7.38	http://www.ec.gc.ca/inrp-npri/donnees-data/index.cfm?do=facility_substance_summary&amp;amp;amp;lang=En&amp;amp;amp;opt_npri_id=0000002991&amp;amp;amp;opt_report_year=2011	32	322	3221	53.41330000	-117.57060000
0000003707	Strathcona Refinery	Imperial Oil	Alberta	Edmonton	Highway 16a & 34 Street	T6P1X7	0	Petroleum Refineries	http://stds.statcan.gc.ca/naics-scian/2007/cs-rc-eng.asp?criteria=324110	5.40	-99.00	http://www.ec.gc.ca/inrp-npri/donnees-data/index.cfm?do=facility_substance_summary&amp;amp;amp;lang=En&amp;amp;amp;opt_npri_id=0000003707&amp;amp;amp;opt_report_year=2011	32	324	3241	53.54170000	-113.39170000
0000005243	Edmonton Plant	Lehigh Hanson Materials Ltd.	Alberta	Edmonton	12640 Inland Way	T5V1K2	0	Cement Mfg.	http://stds.statcan.gc.ca/naics-scian/2007/cs-rc-eng.asp?criteria=327310	32.43	-99.00	http://www.ec.gc.ca/inrp-npri/donnees-data/index.cfm?do=facility_substance_summary&amp;amp;amp;lang=En&amp;amp;amp;opt_npri_id=0000005243&amp;amp;amp;opt_report_year=2011	32	327	3273	53.58160000	-113.59910000
0000005291	Exshaw Cement Plant	Lafarge Canada Inc.	Alberta	Exshaw	1a Highway	T0L2C0	0	Cement Mfg.	http://stds.statcan.gc.ca/naics-scian/2007/cs-rc-eng.asp?criteria=327310	19.71	-99.00	http://www.ec.gc.ca/inrp-npri/donnees-data/index.cfm?do=facility_substance_summary&amp;amp;amp;lang=En&amp;amp;amp;opt_npri_id=0000005291&amp;amp;amp;opt_report_year=2011	32	327	3273	51.05890000	-115.17450000
0000005362	Wainwright Regional Waste to Energy Facility	Wainwright Regional Waste to Energy Authority	Alberta	Wainwright	1201 4th Street South	T9W1S9	0	Steam & Air-Conditioning Supply	http://stds.statcan.gc.ca/naics-scian/2007/cs-rc-eng.asp?criteria=221330	0.16	-99.00	http://www.ec.gc.ca/inrp-npri/donnees-data/index.cfm?do=facility_substance_summary&amp;amp;amp;lang=En&amp;amp;amp;opt_npri_id=0000005362&amp;amp;amp;opt_report_year=2011	22	221	2213	52.82750000	-110.85960000
0000006826	Exshaw Plant	Graymont Western Canada Inc.	Alberta	Exshaw	1a Highway	T0L2C0	0	Lime Mfg.	http://stds.statcan.gc.ca/naics-scian/2007/cs-rc-eng.asp?criteria=327410	0.90	-99.00	http://www.ec.gc.ca/inrp-npri/donnees-data/index.cfm?do=facility_substance_summary&amp;amp;amp;lang=En&amp;amp;amp;opt_npri_id=0000006826&amp;amp;amp;opt_report_year=2011	32	327	3274	51.06820000	-115.13640000
0000000362	Metro Vancouver Waste-To-Energy Facility	Greater Vancouver Sewerage and Drainage District	British Columbia	Burnaby	5150 Riverbend Drive	V3N4V3	0	Waste Treatment & Disposal	http://stds.statcan.gc.ca/naics-scian/2007/cs-rc-eng.asp?criteria=562210	2.40	-99.00	http://www.ec.gc.ca/inrp-npri/donnees-data/index.cfm?do=facility_substance_summary&amp;amp;amp;lang=En&amp;amp;amp;opt_npri_id=0000000362&amp;amp;amp;opt_report_year=2011	56	562	5622	49.18660000	-122.97850000
0000000672	Zellstoff Celgar Limited Partnership	Zellstoff Celgar Limited Partnership	British Columbia	Castlegar	1921 Arrow Lakes Drive	V1N3H9	0	Forest Nurseries & Gathering Forest Products	http://stds.statcan.gc.ca/naics-scian/2007/cs-rc-eng.asp?criteria=113210	1.10	8.70	http://www.ec.gc.ca/inrp-npri/donnees-data/index.cfm?do=facility_substance_summary&amp;amp;amp;lang=En&amp;amp;amp;opt_npri_id=0000000672&amp;amp;amp;opt_report_year=2011	11	113	1132	49.33570000	-117.72800000
0000000702	Richmond Cement Plant	Lafarge Canada Inc.	British Columbia	Richmond	7611 No 9 Road	V6W1H4	0	Cement Mfg.	http://stds.statcan.gc.ca/naics-scian/2007/cs-rc-eng.asp?criteria=327310	25.05	-99.00	http://www.ec.gc.ca/inrp-npri/donnees-data/index.cfm?do=facility_substance_summary&amp;amp;amp;lang=En&amp;amp;amp;opt_npri_id=0000000702&amp;amp;amp;opt_report_year=2011	32	327	3273	49.15910000	-123.00320000
0000000732	Metalex Products - Richmond	Metalex Products Ltd.	British Columbia	Richmond	2511 No. 5 Road	V6X2S8	0	All Other Miscellaneous Mfg.	http://stds.statcan.gc.ca/naics-scian/2007/cs-rc-eng.asp?criteria=339990	0.01	-99.00	http://www.ec.gc.ca/inrp-npri/donnees-data/index.cfm?do=facility_substance_summary&amp;amp;amp;lang=En&amp;amp;amp;opt_npri_id=0000000732&amp;amp;amp;opt_report_year=2011	33	339	3399	49.19410000	-123.09200000
0000001266	Crofton Division	Catalyst Paper Corporation	British Columbia	Crofton	0 - 8541 Hay Road	V0R1R0	0	Chemical Pulp Mills	http://stds.statcan.gc.ca/naics-scian/2007/cs-rc-eng.asp?criteria=322112	1.95	8.48	http://www.ec.gc.ca/inrp-npri/donnees-data/index.cfm?do=facility_substance_summary&amp;amp;amp;lang=En&amp;amp;amp;opt_npri_id=0000001266&amp;amp;amp;opt_report_year=2011	32	322	3221	48.87500000	-123.64500000
0000001419	Howe Sound Pulp and Paper Mill	Howe Sound Pulp & Paper Corporation	British Columbia	Port Mellon	3838 Port Mellon Highway	V0N2S0	0	Chemical Pulp Mills	http://stds.statcan.gc.ca/naics-scian/2007/cs-rc-eng.asp?criteria=322112	5.48	12.05	http://www.ec.gc.ca/inrp-npri/donnees-data/index.cfm?do=facility_substance_summary&amp;amp;amp;lang=En&amp;amp;amp;opt_npri_id=0000001419&amp;amp;amp;opt_report_year=2011	32	322	3221	49.52370000	-123.48370000
0000001593	Port Alberni Division	Catalyst Paper Corporation	British Columbia	Port Alberni	0 - 4000 Stamp Avenue	V9Y5J7	0	Newsprint Mills	http://stds.statcan.gc.ca/naics-scian/2007/cs-rc-eng.asp?criteria=322122	0.67	0.05	http://www.ec.gc.ca/inrp-npri/donnees-data/index.cfm?do=facility_substance_summary&amp;amp;amp;lang=En&amp;amp;amp;opt_npri_id=0000001593&amp;amp;amp;opt_report_year=2011	32	322	3221	49.24780000	-124.81100000
0000001797	Northwood Pulp Mill	Canfor Pulp Limited Partnership	British Columbia	Prince George	5353 Northwood Pulp Mill Road	V2L4W2	0	Chemical Pulp Mills	http://stds.statcan.gc.ca/naics-scian/2007/cs-rc-eng.asp?criteria=322112	3.05	16.94	http://www.ec.gc.ca/inrp-npri/donnees-data/index.cfm?do=facility_substance_summary&amp;amp;amp;lang=En&amp;amp;amp;opt_npri_id=0000001797&amp;amp;amp;opt_report_year=2011	32	322	3221	53.97790000	-122.69500000
0000002377	Neucel Specialty Cellulose (Sfo)	Neucel Specialty Cellulose	British Columbia	Port Alice	300 Marine Drive	V0N2N0	0	Paper (except Newsprint) Mills	http://stds.statcan.gc.ca/naics-scian/2007/cs-rc-eng.asp?criteria=322121	6.80	-99.00	http://www.ec.gc.ca/inrp-npri/donnees-data/index.cfm?do=facility_substance_summary&amp;amp;amp;lang=En&amp;amp;amp;opt_npri_id=0000002377&amp;amp;amp;opt_report_year=2011	32	322	3221	50.43250000	-127.49100000
0000002776	Burnaby Refinery	Chevron Canada Limited	British Columbia	Burnaby	355 North Willingdon Avenue	V5C1X4	0	Petroleum Refineries	http://stds.statcan.gc.ca/naics-scian/2007/cs-rc-eng.asp?criteria=324110	0.16	-99.00	http://www.ec.gc.ca/inrp-npri/donnees-data/index.cfm?do=facility_substance_summary&amp;amp;amp;lang=En&amp;amp;amp;opt_npri_id=0000002776&amp;amp;amp;opt_report_year=2011	32	324	3241	49.28960000	-122.99360000
0000002924	Kamloops Mill (Sfo)	Domtar Inc.	British Columbia	Kamloops	2005 Mission Flats Road	V2C1A9	0	Chemical Pulp Mills	http://stds.statcan.gc.ca/naics-scian/2007/cs-rc-eng.asp?criteria=322112	2.80	25.00	http://www.ec.gc.ca/inrp-npri/donnees-data/index.cfm?do=facility_substance_summary&amp;amp;amp;lang=En&amp;amp;amp;opt_npri_id=0000002924&amp;amp;amp;opt_report_year=2011	32	322	3221	50.68610000	-120.40370000
0000003802	Trail Operations	Teck Metals Ltd.	British Columbia	Trail	25 Aldridge Avenue	V1R 4L8	0	Non-Ferrous (except Al) Smelting & Refining	http://stds.statcan.gc.ca/naics-scian/2007/cs-rc-eng.asp?criteria=331410	69.28	-99.00	http://www.ec.gc.ca/inrp-npri/donnees-data/index.cfm?do=facility_substance_summary&amp;amp;amp;lang=En&amp;amp;amp;opt_npri_id=0000003802&amp;amp;amp;opt_report_year=2011	33	331	3314	49.09990000	-117.71780000
0000005111	Delta Processing Facility	Newalta Corporation	British Columbia	Delta	9 - 7483 Progress Way	V4G1E7	0	Waste Treatment & Disposal	http://stds.statcan.gc.ca/naics-scian/2007/cs-rc-eng.asp?criteria=562210	0.43	0.91	http://www.ec.gc.ca/inrp-npri/donnees-data/index.cfm?do=facility_substance_summary&amp;amp;amp;lang=En&amp;amp;amp;opt_npri_id=0000005111&amp;amp;amp;opt_report_year=2011	56	562	5622	49.13530000	-123.01690000
0000005126	Roxul - Grand Forks	Roxul Inc.	British Columbia	Grand Forks	6526 Industrial Park Way	V0H1H0	0	All Other Non-Metallic Mineral Product Mfg.	http://stds.statcan.gc.ca/naics-scian/2007/cs-rc-eng.asp?criteria=327990	0.01	-99.00	http://www.ec.gc.ca/inrp-npri/donnees-data/index.cfm?do=facility_substance_summary&amp;amp;amp;lang=En&amp;amp;amp;opt_npri_id=0000005126&amp;amp;amp;opt_report_year=2011	32	327	3279	49.02530000	-118.42890000
0000005153	Kamloops Plant	Lafarge Canada Inc.	British Columbia	Kamloops	9750 Shuswap Road	V2H1T4	0	Cement Mfg.	http://stds.statcan.gc.ca/naics-scian/2007/cs-rc-eng.asp?criteria=327310	19.05	-99.00	http://www.ec.gc.ca/inrp-npri/donnees-data/index.cfm?do=facility_substance_summary&amp;amp;amp;lang=En&amp;amp;amp;opt_npri_id=0000005153&amp;amp;amp;opt_report_year=2011	32	327	3273	50.66290000	-120.06570000
0000005190	Delta Plant	Lehigh Hanson Materials Ltd.	British Columbia	Delta	7777 Ross Road	V4G1B8	0	Cement Mfg.	http://stds.statcan.gc.ca/naics-scian/2007/cs-rc-eng.asp?criteria=327310	49.76	-99.00	http://www.ec.gc.ca/inrp-npri/donnees-data/index.cfm?do=facility_substance_summary&amp;amp;amp;lang=En&amp;amp;amp;opt_npri_id=0000005190&amp;amp;amp;opt_report_year=2011	32	327	3273	49.14360000	-123.02300000
0000006688	Williams Lake Power Plant	Atlantic Power (Williams Lake) Limited Partnership	British Columbia	Williams Lake	4455 MacKenzie Avenue North	V2G5E8	0	Other Electric Power Generation	http://stds.statcan.gc.ca/naics-scian/2007/cs-rc-eng.asp?criteria=221119	17.70	-99.00	http://www.ec.gc.ca/inrp-npri/donnees-data/index.cfm?do=facility_substance_summary&amp;amp;amp;lang=En&amp;amp;amp;opt_npri_id=0000006688&amp;amp;amp;opt_report_year=2011	22	221	2211	52.16080000	-122.17240000
0000020116	Wolverine Group- Perry Creek Mine	Western Coal Corp	British Columbia	Tumbler Ridge	Wolverine Forest Service Road	V0C2W0	0	Bituminous Coal Mining	http://stds.statcan.gc.ca/naics-scian/2007/cs-rc-eng.asp?criteria=212114	0.01	-99.00	http://www.ec.gc.ca/inrp-npri/donnees-data/index.cfm?do=facility_substance_summary&amp;amp;amp;lang=En&amp;amp;amp;opt_npri_id=0000020116&amp;amp;amp;opt_report_year=2011	21	212	2121	55.10330000	-121.35390000
0000025434	New Afton Mine	New Gold	British Columbia	Kamloops	4050 Trans Canada Highway West	V1S 2A9	0	Gold & Silver Ore Mining	http://stds.statcan.gc.ca/naics-scian/2007/cs-rc-eng.asp?criteria=212220	0.99	-99.00	http://www.ec.gc.ca/inrp-npri/donnees-data/index.cfm?do=facility_substance_summary&amp;amp;amp;lang=En&amp;amp;amp;opt_npri_id=0000025434&amp;amp;amp;opt_report_year=2011	21	212	2122	50.66082000	-120.51242400
0000001473	Thompson Operations	Vale Canada Limited	Manitoba	Thompson	1 Inco Road	R8N1P3	0	Nickel-Copper Ore Mining	http://stds.statcan.gc.ca/naics-scian/2007/cs-rc-eng.asp?criteria=212232	0.01	-99.00	http://www.ec.gc.ca/inrp-npri/donnees-data/index.cfm?do=facility_substance_summary&amp;amp;amp;lang=En&amp;amp;amp;opt_npri_id=0000001473&amp;amp;amp;opt_report_year=2011	21	212	2122	55.71380000	-97.85610000
0000001651	Gerdau Ameristeel Corporation, Manitoba Mill		Manitoba	Selkirk	27 Main Street	R1A1P6	0	Iron & Steel Mills & Ferro-Alloy Mfg.	http://stds.statcan.gc.ca/naics-scian/2007/cs-rc-eng.asp?criteria=331110	21.37	-99.00	http://www.ec.gc.ca/inrp-npri/donnees-data/index.cfm?do=facility_substance_summary&amp;amp;amp;lang=En&amp;amp;amp;opt_npri_id=0000001651&amp;amp;amp;opt_report_year=2011	33	331	3311	50.13020000	-96.90130000
0000000054	Brunswick Mine	Xstrata Canada Corporation	New Brunswick	Bathurst	Highway 430 Highway West	E8G2M1	0	Lead-Zinc Ore Mining	http://stds.statcan.gc.ca/naics-scian/2007/cs-rc-eng.asp?criteria=212231	0.16	0.35	http://www.ec.gc.ca/inrp-npri/donnees-data/index.cfm?do=facility_substance_summary&amp;amp;amp;lang=En&amp;amp;amp;opt_npri_id=0000000054&amp;amp;amp;opt_report_year=2011	21	212	2122	47.47170000	-65.88970000
0000001221	Edmundston Pulp Mill	Twin Rivers Paper Company Inc.	New Brunswick	Edmundston	27 Rice Street	E3V1S9	0	Chemical Pulp Mills	http://stds.statcan.gc.ca/naics-scian/2007/cs-rc-eng.asp?criteria=322112	3.53	2.10	http://www.ec.gc.ca/inrp-npri/donnees-data/index.cfm?do=facility_substance_summary&amp;amp;amp;lang=En&amp;amp;amp;opt_npri_id=0000001221&amp;amp;amp;opt_report_year=2011	32	322	3221	47.37490000	-68.33330000
0000001698	Belledune Generating Station	NB Power Generation Corporation	New Brunswick	Belledune	1558 Main Street	E8G2M3	0	Fossil-Fuel Electric Power Generation	http://stds.statcan.gc.ca/naics-scian/2007/cs-rc-eng.asp?criteria=221112	18.40	-99.00	http://www.ec.gc.ca/inrp-npri/donnees-data/index.cfm?do=facility_substance_summary&amp;amp;amp;lang=En&amp;amp;amp;opt_npri_id=0000001698&amp;amp;amp;opt_report_year=2011	22	221	2211	47.90580000	-65.86700000
0000002181	Av Nackawic	AV Nackawic Inc.	New Brunswick	Nackawic	103 Pinder Road	E6G1W4	0	Chemical Pulp Mills	http://stds.statcan.gc.ca/naics-scian/2007/cs-rc-eng.asp?criteria=322112	2.40	2.70	http://www.ec.gc.ca/inrp-npri/donnees-data/index.cfm?do=facility_substance_summary&amp;amp;amp;lang=En&amp;amp;amp;opt_npri_id=0000002181&amp;amp;amp;opt_report_year=2011	32	322	3221	46.01110000	-67.22650000
0000004024	Brunswick Smelter	Xstrata Canada Corporation - Duplicate	New Brunswick	Belledune	692 Main Street	E8G2M1	0	Non-Ferrous (except Al) Smelting & Refining	http://stds.statcan.gc.ca/naics-scian/2007/cs-rc-eng.asp?criteria=331410	72.81	-99.00	http://www.ec.gc.ca/inrp-npri/donnees-data/index.cfm?do=facility_substance_summary&amp;amp;amp;lang=En&amp;amp;amp;opt_npri_id=0000004024&amp;amp;amp;opt_report_year=2011	33	331	3314	47.89920000	-65.83390000
0000005008	Av Cell Inc.	AV Cell Inc.	New Brunswick	Atholville	0 - 175 Mill Road	E3N4S7	0	Chemical Pulp Mills	http://stds.statcan.gc.ca/naics-scian/2007/cs-rc-eng.asp?criteria=322112	3.54	1.55	http://www.ec.gc.ca/inrp-npri/donnees-data/index.cfm?do=facility_substance_summary&amp;amp;amp;lang=En&amp;amp;amp;opt_npri_id=0000005008&amp;amp;amp;opt_report_year=2011	32	322	3221	47.99240000	-66.72340000
0000005063	Moncton	Stericycle, Ulc	New Brunswick	Moncton	20 Galloway Street	E1H2J4	0	Waste Treatment & Disposal	http://stds.statcan.gc.ca/naics-scian/2007/cs-rc-eng.asp?criteria=562210	0.33	-99.00	http://www.ec.gc.ca/inrp-npri/donnees-data/index.cfm?do=facility_substance_summary&amp;amp;amp;lang=En&amp;amp;amp;opt_npri_id=0000005063&amp;amp;amp;opt_report_year=2011	56	562	5622	46.13670000	-64.75110000
0000004316	North Atlantic Refinery	North Atlantic Refining LP	Newfoundland and Labrador	Come By Chance	1 Refinery Road	A0B1N0	0	Petroleum Refineries	http://stds.statcan.gc.ca/naics-scian/2007/cs-rc-eng.asp?criteria=324110	5.97	-99.00	http://www.ec.gc.ca/inrp-npri/donnees-data/index.cfm?do=facility_substance_summary&amp;amp;amp;lang=En&amp;amp;amp;opt_npri_id=0000004316&amp;amp;amp;opt_report_year=2011	32	324	3241	47.79800000	-53.99380000
0000005013	Carol Project	Iron Ore Company of Canada	Newfoundland and Labrador	Labrador City	2 Avalon Street	A2V2Y6	0	Iron Ore Mining	http://stds.statcan.gc.ca/naics-scian/2007/cs-rc-eng.asp?criteria=212210	49.90	-99.00	http://www.ec.gc.ca/inrp-npri/donnees-data/index.cfm?do=facility_substance_summary&amp;amp;amp;lang=En&amp;amp;amp;opt_npri_id=0000005013&amp;amp;amp;opt_report_year=2011	21	212	2122	52.95650000	-66.89360000
0000005028	Town of Channel  Port aux Basques	Town of Channel - Port aux Basques	Newfoundland and Labrador	Port aux Basques	P.O. Box 70	A0M1C0	0	Waste Treatment & Disposal	http://stds.statcan.gc.ca/naics-scian/2007/cs-rc-eng.asp?criteria=562210	8.75	-99.00	http://www.ec.gc.ca/inrp-npri/donnees-data/index.cfm?do=facility_substance_summary&amp;amp;amp;lang=En&amp;amp;amp;opt_npri_id=0000005028&amp;amp;amp;opt_report_year=2011	56	562	5622	47.65190000	-59.24240000
0000006093	Voisey's Bay Mine Site	Vale Newfoundland and Labrador Limited	Newfoundland and Labrador	Happy Valley-Goose Bay		A0P1C0	0	Nickel-Copper Ore Mining	http://stds.statcan.gc.ca/naics-scian/2007/cs-rc-eng.asp?criteria=212232	0.15	-99.00	http://www.ec.gc.ca/inrp-npri/donnees-data/index.cfm?do=facility_substance_summary&amp;amp;amp;lang=En&amp;amp;amp;opt_npri_id=0000006093&amp;amp;amp;opt_report_year=2011	21	212	2122	56.33250000	-62.09850000
0000018241	Diavik Diamond Mines Inc - Lac de Gras	Diavik Diamond Mines Inc.	Northwest Territories	Yellowknife	5007 50th Avenue	X1A2P8	0	Diamond Mines	http://stds.statcan.gc.ca/naics-scian/2007/cs-rc-eng.asp?criteria=212392	1.83	-99.00	http://www.ec.gc.ca/inrp-npri/donnees-data/index.cfm?do=facility_substance_summary&amp;amp;amp;lang=En&amp;amp;amp;opt_npri_id=0000018241&amp;amp;amp;opt_report_year=2011	21	212	2123	64.49510000	-110.28320000
0000002710	Red Lake Gold Mines	Goldcorp Canada Limited - Red Lake Gold Mines	Ontario	Balmertown	17 Mine Road	P0V1C0	0	Gold & Silver Ore Mining	http://stds.statcan.gc.ca/naics-scian/2007/cs-rc-eng.asp?criteria=212220	0.01	-99.00	http://www.ec.gc.ca/inrp-npri/donnees-data/index.cfm?do=facility_substance_summary&amp;amp;amp;lang=En&amp;amp;amp;opt_npri_id=0000002710&amp;amp;amp;opt_report_year=2011	21	212	2122	51.05970000	-93.73080000
0000003197	Williams Mine	Williams Operating Corporation	Ontario	Hemlo	3km West of Junction Hwy 17 and 614 Hig	P0T2E0	0	Gold & Silver Ore Mining	http://stds.statcan.gc.ca/naics-scian/2007/cs-rc-eng.asp?criteria=212220	0.16	-99.00	http://www.ec.gc.ca/inrp-npri/donnees-data/index.cfm?do=facility_substance_summary&amp;amp;amp;lang=En&amp;amp;amp;opt_npri_id=0000003197&amp;amp;amp;opt_report_year=2011	21	212	2122	48.69420000	-85.91880000
0000001465	Clarabelle Mill	Vale Canada Limited	Ontario	Copper Cliff	Clarabelle Road	P0M1N0	0	Nickel-Copper Ore Mining	http://stds.statcan.gc.ca/naics-scian/2007/cs-rc-eng.asp?criteria=212232	0.03	-99.00	http://www.ec.gc.ca/inrp-npri/donnees-data/index.cfm?do=facility_substance_summary&amp;amp;amp;lang=En&amp;amp;amp;opt_npri_id=0000001465&amp;amp;amp;opt_report_year=2011	21	212	2122	46.49500000	-81.05610000
0000010203	Copper Cliff Mine (North)	Vale Canada Limited	Ontario	Copper Cliff	Clarabelle Road	P0M1N0	0	Nickel-Copper Ore Mining	http://stds.statcan.gc.ca/naics-scian/2007/cs-rc-eng.asp?criteria=212232	0.01	-99.00	http://www.ec.gc.ca/inrp-npri/donnees-data/index.cfm?do=facility_substance_summary&amp;amp;amp;lang=En&amp;amp;amp;opt_npri_id=0000010203&amp;amp;amp;opt_report_year=2011	21	212	2122	46.47460000	-81.09100000
0000011466	Podolsky Mine	FNX Mining Company Inc.	Ontario	Sudbury	1 Portelance Road	P0M1H0	0	Nickel-Copper Ore Mining	http://stds.statcan.gc.ca/naics-scian/2007/cs-rc-eng.asp?criteria=212232	0.01	-99.00	http://www.ec.gc.ca/inrp-npri/donnees-data/index.cfm?do=facility_substance_summary&amp;amp;amp;lang=En&amp;amp;amp;opt_npri_id=0000011466&amp;amp;amp;opt_report_year=2011	21	212	2122	46.77350000	-80.88210000
0000011878	Totten Mine	Vale Canada Limited	Ontario	Worthington	6 C. Johnson Road	P0M3H0	0	Nickel-Copper Ore Mining	http://stds.statcan.gc.ca/naics-scian/2007/cs-rc-eng.asp?criteria=212232	0.40	-99.00	http://www.ec.gc.ca/inrp-npri/donnees-data/index.cfm?do=facility_substance_summary&amp;amp;amp;lang=En&amp;amp;amp;opt_npri_id=0000011878&amp;amp;amp;opt_report_year=2011	21	212	2122	46.38130000	-81.45410000
0000007369	Lac des Iles Mine Ltd.	North American Palladium Limited	Ontario	Thunder Bay			0	All Other Metal Ore Mining	http://stds.statcan.gc.ca/naics-scian/2007/cs-rc-eng.asp?criteria=212299	0.05	-99.00	http://www.ec.gc.ca/inrp-npri/donnees-data/index.cfm?do=facility_substance_summary&amp;amp;amp;lang=En&amp;amp;amp;opt_npri_id=0000007369&amp;amp;amp;opt_report_year=2011	21	212	2122	49.15930000	-89.61670000
0000010625	Nepheline Syenite Operations	Unimin Canada Ltd	Ontario	Havelock	260 Unimin Road	K0L1Z0	0	"Shale, Clay & Refractory Mining & Quarrying"	http://stds.statcan.gc.ca/naics-scian/2007/cs-rc-eng.asp?criteria=212326	0.02	-99.00	http://www.ec.gc.ca/inrp-npri/donnees-data/index.cfm?do=facility_substance_summary&amp;amp;amp;lang=En&amp;amp;amp;opt_npri_id=0000010625&amp;amp;amp;opt_report_year=2011	21	212	2123	44.67460000	-77.94560000
0000011174	Sarnia Cogen Plant	Imperial Oil	Ontario	Sarnia	602 Christina Street South	N7T7M5	0	Fossil-Fuel Electric Power Generation	http://stds.statcan.gc.ca/naics-scian/2007/cs-rc-eng.asp?criteria=221112	0.01	-99.00	http://www.ec.gc.ca/inrp-npri/donnees-data/index.cfm?do=facility_substance_summary&amp;amp;amp;lang=En&amp;amp;amp;opt_npri_id=0000011174&amp;amp;amp;opt_report_year=2011	22	221	2211	42.95860000	-82.41460000
0000005901	West Windsor Power	Gdf Suez Energy Canada Inc.	Ontario	Windsor	4375 Sandwich Street	N9C4C8	0	Fossil-Fuel Electric Power Generation	http://stds.statcan.gc.ca/naics-scian/2007/cs-rc-eng.asp?criteria=221112	22.93	-99.00	http://www.ec.gc.ca/inrp-npri/donnees-data/index.cfm?do=facility_substance_summary&amp;amp;amp;lang=En&amp;amp;amp;opt_npri_id=0000005901&amp;amp;amp;opt_report_year=2011	22	221	2211	42.28070000	-83.08760000
0000001809	Lambton Generating Station	Ontario Power Generation Inc.	Ontario	Courtright	1886 St. Clair Parkway	N0N1H0	0	Fossil-Fuel Electric Power Generation	http://stds.statcan.gc.ca/naics-scian/2007/cs-rc-eng.asp?criteria=221112	2.10	-99.00	http://www.ec.gc.ca/inrp-npri/donnees-data/index.cfm?do=facility_substance_summary&amp;amp;amp;lang=En&amp;amp;amp;opt_npri_id=0000001809&amp;amp;amp;opt_report_year=2011	22	221	2211	42.79610000	-82.46970000
0000001861	Nanticoke Generating Station	Ontario Power Generation Inc.	Ontario	Nanticoke	34 Haldimand Rd 55 Road South	N0A1L0	0	Fossil-Fuel Electric Power Generation	http://stds.statcan.gc.ca/naics-scian/2007/cs-rc-eng.asp?criteria=221112	30.00	-99.00	http://www.ec.gc.ca/inrp-npri/donnees-data/index.cfm?do=facility_substance_summary&amp;amp;amp;lang=En&amp;amp;amp;opt_npri_id=0000001861&amp;amp;amp;opt_report_year=2011	22	221	2211	42.79610000	-80.05000000
0000003161	Pickering Nuclear	Ontario Power Generation Inc.	Ontario	Pickering	1675 Montgomery Park Road	L1V2R5	0	Nuclear Electric Power Generation	http://stds.statcan.gc.ca/naics-scian/2007/cs-rc-eng.asp?criteria=221113	0.04	-99.00	http://www.ec.gc.ca/inrp-npri/donnees-data/index.cfm?do=facility_substance_summary&amp;amp;amp;lang=En&amp;amp;amp;opt_npri_id=0000003161&amp;amp;amp;opt_report_year=2011	22	221	2211	43.81040000	-79.06760000
0000003803	G.E. Booth (Lakeview) Wastewater Treatment Facilit	Ontario Clean Water Agency	Ontario	Mississauga	1300 Lakeshore Road	L5E1E9	0	Sewage Treatment Facilities	http://stds.statcan.gc.ca/naics-scian/2007/cs-rc-eng.asp?criteria=221320	4.98	-99.00	http://www.ec.gc.ca/inrp-npri/donnees-data/index.cfm?do=facility_substance_summary&amp;amp;amp;lang=En&amp;amp;amp;opt_npri_id=0000003803&amp;amp;amp;opt_report_year=2011	22	221	2213	43.57840000	-79.54760000
0000004435	Highland Creek Treatment Plant	City of Toronto	Ontario	Toronto	51 Beechgrove Drive	M1E3Z3	0	Sewage Treatment Facilities	http://stds.statcan.gc.ca/naics-scian/2007/cs-rc-eng.asp?criteria=221320	11.10	-99.00	http://www.ec.gc.ca/inrp-npri/donnees-data/index.cfm?do=facility_substance_summary&amp;amp;amp;lang=En&amp;amp;amp;opt_npri_id=0000004435&amp;amp;amp;opt_report_year=2011	22	221	2213	43.76670000	-79.15000000
0000004743	Greenway Pollution Control Centre	Corporation of the City of London	Ontario	London	109 Greenside Avenue	N6J2X5	0	Sewage Treatment Facilities	http://stds.statcan.gc.ca/naics-scian/2007/cs-rc-eng.asp?criteria=221320	6.33	-99.00	http://www.ec.gc.ca/inrp-npri/donnees-data/index.cfm?do=facility_substance_summary&amp;amp;amp;lang=En&amp;amp;amp;opt_npri_id=0000004743&amp;amp;amp;opt_report_year=2011	22	221	2213	42.97440000	-81.28210000
0000004908	Duffin Creek Water Pollution Control Plant	Regional Municipality of Durham	Ontario	Pickering	901 McKay Road	L1W3A3	0	Sewage Treatment Facilities	http://stds.statcan.gc.ca/naics-scian/2007/cs-rc-eng.asp?criteria=221320	21.28	-99.00	http://www.ec.gc.ca/inrp-npri/donnees-data/index.cfm?do=facility_substance_summary&amp;amp;amp;lang=En&amp;amp;amp;opt_npri_id=0000004908&amp;amp;amp;opt_report_year=2011	22	221	2213	43.81820000	-79.05130000
0000005970	Woodward Avenue Wastewater Treatment Plant	City of Hamilton	Ontario	Hamilton	700 Woodward Avenue	L8H6P4	0	Sewage Treatment Facilities	http://stds.statcan.gc.ca/naics-scian/2007/cs-rc-eng.asp?criteria=221320	0.72	-99.00	http://www.ec.gc.ca/inrp-npri/donnees-data/index.cfm?do=facility_substance_summary&amp;amp;amp;lang=En&amp;amp;amp;opt_npri_id=0000005970&amp;amp;amp;opt_report_year=2011	22	221	2213	43.25300000	-79.77110000
0000007264	Leamington Pollution Control Centre	Leamington Pollution Control Centre	Ontario	Leamington	435 Seacliff Drive East	N8H4E1	0	Sewage Treatment Facilities	http://stds.statcan.gc.ca/naics-scian/2007/cs-rc-eng.asp?criteria=221320	1.47	-99.00	http://www.ec.gc.ca/inrp-npri/donnees-data/index.cfm?do=facility_substance_summary&amp;amp;amp;lang=En&amp;amp;amp;opt_npri_id=0000007264&amp;amp;amp;opt_report_year=2011	22	221	2213	42.03610000	-82.58810000
0000003185	Espanola Mill	Domtar Inc.	Ontario	Espanola	1 Station Road	P5E1R6	0	Paper (except Newsprint) Mills	http://stds.statcan.gc.ca/naics-scian/2007/cs-rc-eng.asp?criteria=322121	1.05	7.20	http://www.ec.gc.ca/inrp-npri/donnees-data/index.cfm?do=facility_substance_summary&amp;amp;amp;lang=En&amp;amp;amp;opt_npri_id=0000003185&amp;amp;amp;opt_report_year=2011	32	322	3221	46.26810000	-81.76830000
0000000917	Fort Frances Division	Abibowcanada Inc.	Ontario	Fort Frances	427 Mowat Avenue	P9A1Y8	0	Paper (except Newsprint) Mills	http://stds.statcan.gc.ca/naics-scian/2007/cs-rc-eng.asp?criteria=322121	1.86	3.64	http://www.ec.gc.ca/inrp-npri/donnees-data/index.cfm?do=facility_substance_summary&amp;amp;amp;lang=En&amp;amp;amp;opt_npri_id=0000000917&amp;amp;amp;opt_report_year=2011	32	322	3221	48.61110000	-93.40340000
0000003962	Sarnia Manufacturing Centre	Shell Canada Products	Ontario	Corunna	150 St. Clair Parkway	N0N1G0	0	Petroleum Refineries	http://stds.statcan.gc.ca/naics-scian/2007/cs-rc-eng.asp?criteria=324110	1.55	-99.00	http://www.ec.gc.ca/inrp-npri/donnees-data/index.cfm?do=facility_substance_summary&amp;amp;amp;lang=En&amp;amp;amp;opt_npri_id=0000003962&amp;amp;amp;opt_report_year=2011	32	324	3241	42.90250000	-82.45110000
0000003701	Nanticoke Refinery	Imperial Oil	Ontario	Nanticoke	225 2nd Concession	N0A1L0	0	Petroleum Refineries	http://stds.statcan.gc.ca/naics-scian/2007/cs-rc-eng.asp?criteria=324110	3.40	-99.00	http://www.ec.gc.ca/inrp-npri/donnees-data/index.cfm?do=facility_substance_summary&amp;amp;amp;lang=En&amp;amp;amp;opt_npri_id=0000003701&amp;amp;amp;opt_report_year=2011	32	324	3241	42.83750000	-80.05170000
0000003704	Sarnia Refinery Plant	Imperial Oil	Ontario	Sarnia	602 Christina Street South	N7T7M5	0	Petroleum Refineries	http://stds.statcan.gc.ca/naics-scian/2007/cs-rc-eng.asp?criteria=324110	2.90	-99.00	http://www.ec.gc.ca/inrp-npri/donnees-data/index.cfm?do=facility_substance_summary&amp;amp;amp;lang=En&amp;amp;amp;opt_npri_id=0000003704&amp;amp;amp;opt_report_year=2011	32	324	3241	42.95420000	-82.41580000
0000001464	Sarnia Chemical Plant		Ontario	Sarnia	602 Christina Street South	N7T7M5	0	Petrochemical Mfg.	http://stds.statcan.gc.ca/naics-scian/2007/cs-rc-eng.asp?criteria=325110	0.40	-99.00	http://www.ec.gc.ca/inrp-npri/donnees-data/index.cfm?do=facility_substance_summary&amp;amp;amp;lang=En&amp;amp;amp;opt_npri_id=0000001464&amp;amp;amp;opt_report_year=2011	32	325	3251	42.95440000	-82.41530000
0000002660	Hamilton	Columbian Chemicals Canada Ltd.	Ontario	Hamilton	755 Parkdale Avenue North	L8H7N5	0	All Other Basic Inorganic Chemical Mfg.	http://stds.statcan.gc.ca/naics-scian/2007/cs-rc-eng.asp?criteria=325189	0.03	-99.00	http://www.ec.gc.ca/inrp-npri/donnees-data/index.cfm?do=facility_substance_summary&amp;amp;amp;lang=En&amp;amp;amp;opt_npri_id=0000002660&amp;amp;amp;opt_report_year=2011	32	325	3251	43.25880000	-79.78430000
0000005808	Cabot Canada Limited	Cabot Canada Limited	Ontario	Sarnia	800 Tashmoo Avenue	N7T7N4	0	All Other Basic Inorganic Chemical Mfg.	http://stds.statcan.gc.ca/naics-scian/2007/cs-rc-eng.asp?criteria=325189	15.06	-99.00	http://www.ec.gc.ca/inrp-npri/donnees-data/index.cfm?do=facility_substance_summary&amp;amp;amp;lang=En&amp;amp;amp;opt_npri_id=0000005808&amp;amp;amp;opt_report_year=2011	32	325	3251	42.94370000	-82.41530000
0000005841	Bowmanville Cement Plant	St. Marys Cement Inc.	Ontario	Bowmanville	400 Waverley Road South	L1C3K3	0	Cement Mfg.	http://stds.statcan.gc.ca/naics-scian/2007/cs-rc-eng.asp?criteria=327310	18.39	-99.00	http://www.ec.gc.ca/inrp-npri/donnees-data/index.cfm?do=facility_substance_summary&amp;amp;amp;lang=En&amp;amp;amp;opt_npri_id=0000005841&amp;amp;amp;opt_report_year=2011	32	327	3273	43.88060000	-78.70050000
0000005850	Bath Cement Plant	Lafarge Canada Inc.	Ontario	Bath	6501 33 Highway	K0H1G0	0	Cement Mfg.	http://stds.statcan.gc.ca/naics-scian/2007/cs-rc-eng.asp?criteria=327310	0.02	-99.00	http://www.ec.gc.ca/inrp-npri/donnees-data/index.cfm?do=facility_substance_summary&amp;amp;amp;lang=En&amp;amp;amp;opt_npri_id=0000005850&amp;amp;amp;opt_report_year=2011	32	327	3273	44.16640000	-76.80260000
0000005871	St. Marys Cement Plant		Ontario	St. Marys	585 Water Street South	N4X1B6	0	Cement Mfg.	http://stds.statcan.gc.ca/naics-scian/2007/cs-rc-eng.asp?criteria=327310	32.44	-99.00	http://www.ec.gc.ca/inrp-npri/donnees-data/index.cfm?do=facility_substance_summary&amp;amp;amp;lang=En&amp;amp;amp;opt_npri_id=0000005871&amp;amp;amp;opt_report_year=2011	32	327	3273	43.24260000	-81.14780000
0000003541	Picton Plant	Essroc Canada Inc.	Ontario	Picton	1370 49 Highway South	K0K2T0	0	Cement Mfg.	http://stds.statcan.gc.ca/naics-scian/2007/cs-rc-eng.asp?criteria=327310	9.15	-99.00	http://www.ec.gc.ca/inrp-npri/donnees-data/index.cfm?do=facility_substance_summary&amp;amp;amp;lang=En&amp;amp;amp;opt_npri_id=0000003541&amp;amp;amp;opt_report_year=2011	32	327	3273	44.05530000	-77.12220000
0000002182	Mississauga Cement Plant	Holcim (Canada) Inc.	Ontario	Mississauga	2391 Lakeshore Road	L5J1K1	0	Cement Mfg.	http://stds.statcan.gc.ca/naics-scian/2007/cs-rc-eng.asp?criteria=327310	18.70	-99.00	http://www.ec.gc.ca/inrp-npri/donnees-data/index.cfm?do=facility_substance_summary&amp;amp;amp;lang=En&amp;amp;amp;opt_npri_id=0000002182&amp;amp;amp;opt_report_year=2011	32	327	3273	43.49720000	-79.62770000
0000005946	Woodstock Plant	Federal White Cement Ltd.	Ontario	Woodstock	3551551 35th Line	N0J1J0	0	Cement Mfg.	http://stds.statcan.gc.ca/naics-scian/2007/cs-rc-eng.asp?criteria=327310	34.19	-99.00	http://www.ec.gc.ca/inrp-npri/donnees-data/index.cfm?do=facility_substance_summary&amp;amp;amp;lang=En&amp;amp;amp;opt_npri_id=0000005946&amp;amp;amp;opt_report_year=2011	32	327	3273	43.09890000	-80.89430000
0000011862	Unilock Ltd. (Ayr)	Unilock Ltd.	Ontario	Ayr	2977 Cedar Creek Road	N0B 1E0	0	"Concrete Pipe, Brick & Block Mfg."	http://stds.statcan.gc.ca/naics-scian/2007/cs-rc-eng.asp?criteria=327330	0.26	-99.00	http://www.ec.gc.ca/inrp-npri/donnees-data/index.cfm?do=facility_substance_summary&amp;amp;amp;lang=En&amp;amp;amp;opt_npri_id=0000011862&amp;amp;amp;opt_report_year=2011	32	327	3273	43.32860000	-80.45960000
0000002161	Hamilton Specialty Bar	Hamilton Specialty Bar Corporation	Ontario	Hamilton	319 Sherman Avenue North	L8N3R5	0	Iron & Steel Mills & Ferro-Alloy Mfg.	http://stds.statcan.gc.ca/naics-scian/2007/cs-rc-eng.asp?criteria=331110	10.76	-99.00	http://www.ec.gc.ca/inrp-npri/donnees-data/index.cfm?do=facility_substance_summary&amp;amp;amp;lang=En&amp;amp;amp;opt_npri_id=0000002161&amp;amp;amp;opt_report_year=2011	33	331	3311	43.26190000	-79.83560000
0000001070	Essar Steel Algoma Inc	Essar Steel Algoma Inc.	Ontario	Sault Ste. Marie	105 West Street North	P6A7B4	0	Iron & Steel Mills & Ferro-Alloy Mfg.	http://stds.statcan.gc.ca/naics-scian/2007/cs-rc-eng.asp?criteria=331110	29.96	-99.00	http://www.ec.gc.ca/inrp-npri/donnees-data/index.cfm?do=facility_substance_summary&amp;amp;amp;lang=En&amp;amp;amp;opt_npri_id=0000001070&amp;amp;amp;opt_report_year=2011	33	331	3311	46.52080000	-84.36970000
0000001520	Ivaco Rolling Mills	Ivaco Rolling Mills 2004 Limited Partnership	Ontario	L'Orignal	1040 County Rd 17 Road	K0B1K0	0	Iron & Steel Mills & Ferro-Alloy Mfg.	http://stds.statcan.gc.ca/naics-scian/2007/cs-rc-eng.asp?criteria=331110	23.09	-99.00	http://www.ec.gc.ca/inrp-npri/donnees-data/index.cfm?do=facility_substance_summary&amp;amp;amp;lang=En&amp;amp;amp;opt_npri_id=0000001520&amp;amp;amp;opt_report_year=2011	33	331	3311	45.61330000	-74.70500000
0000002984	Hamilton Works		Ontario	Hamilton	386 Wilcox Street	L8N3T1	0	Iron & Steel Mills & Ferro-Alloy Mfg.	http://stds.statcan.gc.ca/naics-scian/2007/cs-rc-eng.asp?criteria=331110	15.18	-99.00	http://www.ec.gc.ca/inrp-npri/donnees-data/index.cfm?do=facility_substance_summary&amp;amp;amp;lang=En&amp;amp;amp;opt_npri_id=0000002984&amp;amp;amp;opt_report_year=2011	33	331	3311	43.26220000	-79.78670000
0000003713	Dofasco Hamilton	Arcelormittal Dofasco Inc.	Ontario	Hamilton	1330 Burlington Street East	L8N3J5	0	Iron & Steel Mills & Ferro-Alloy Mfg.	http://stds.statcan.gc.ca/naics-scian/2007/cs-rc-eng.asp?criteria=331110	91.52	10.87	http://www.ec.gc.ca/inrp-npri/donnees-data/index.cfm?do=facility_substance_summary&amp;amp;amp;lang=En&amp;amp;amp;opt_npri_id=0000003713&amp;amp;amp;opt_report_year=2011	33	331	3311	43.25970000	-79.81110000
0000004169	Gerdau Ameristeel Corporation, Cambridge Mill		Ontario	Cambridge	160 Orion Place	N1T1R9	0	Iron & Steel Mills & Ferro-Alloy Mfg.	http://stds.statcan.gc.ca/naics-scian/2007/cs-rc-eng.asp?criteria=331110	11.52	-99.00	http://www.ec.gc.ca/inrp-npri/donnees-data/index.cfm?do=facility_substance_summary&amp;amp;amp;lang=En&amp;amp;amp;opt_npri_id=0000004169&amp;amp;amp;opt_report_year=2011	33	331	3311	43.37120000	-80.27910000
0000003824	Gerdau Ameristeel Corporation, Whitby Mill		Ontario	Whitby	1801 Hopkins Street South	L1N5T1	0	Iron & Steel Mills & Ferro-Alloy Mfg.	http://stds.statcan.gc.ca/naics-scian/2007/cs-rc-eng.asp?criteria=331110	46.31	-99.00	http://www.ec.gc.ca/inrp-npri/donnees-data/index.cfm?do=facility_substance_summary&amp;amp;amp;lang=En&amp;amp;amp;opt_npri_id=0000003824&amp;amp;amp;opt_report_year=2011	33	331	3311	43.85780000	-78.90970000
0000003855	Lake Erie Works	U.S. Steel Canada Inc.	Ontario	Haldimand County	2330 Regional #3 Road	N0A1L0	0	Iron & Steel Mills & Ferro-Alloy Mfg.	http://stds.statcan.gc.ca/naics-scian/2007/cs-rc-eng.asp?criteria=331110	17.49	-99.00	http://www.ec.gc.ca/inrp-npri/donnees-data/index.cfm?do=facility_substance_summary&amp;amp;amp;lang=En&amp;amp;amp;opt_npri_id=0000003855&amp;amp;amp;opt_report_year=2011	33	331	3311	42.81000000	-80.09670000
0000002815	Kidd Metallurgical Site	Xstrata Canada Corporation - Duplicate	Ontario	Timmins/District of Cochrane	10050 Highway 101 East Highway East	P4N7K1	0	Non-Ferrous (except Al) Smelting & Refining	http://stds.statcan.gc.ca/naics-scian/2007/cs-rc-eng.asp?criteria=331410	0.08	-99.00	http://www.ec.gc.ca/inrp-npri/donnees-data/index.cfm?do=facility_substance_summary&amp;amp;amp;lang=En&amp;amp;amp;opt_npri_id=0000002815&amp;amp;amp;opt_report_year=2011	33	331	3314	48.54930000	-81.07800000
0000001236	Sudbury Nickel Smelter Complex	Xstrata Canada Corporation	Ontario	Falconbridge	1 Longyear Drive	P0M1S0	0	Non-Ferrous (except Al) Smelting & Refining	http://stds.statcan.gc.ca/naics-scian/2007/cs-rc-eng.asp?criteria=331410	7.47	-99.00	http://www.ec.gc.ca/inrp-npri/donnees-data/index.cfm?do=facility_substance_summary&amp;amp;amp;lang=En&amp;amp;amp;opt_npri_id=0000001236&amp;amp;amp;opt_report_year=2011	33	331	3314	46.57750000	-80.80420000
0000005615	Belleville	The Procter & Gamble Company	Ontario	Belleville	355 University Avenue	K8N5E9	0	All Other Miscellaneous Mfg.	http://stds.statcan.gc.ca/naics-scian/2007/cs-rc-eng.asp?criteria=339990	0.02	-99.00	http://www.ec.gc.ca/inrp-npri/donnees-data/index.cfm?do=facility_substance_summary&amp;amp;amp;lang=En&amp;amp;amp;opt_npri_id=0000005615&amp;amp;amp;opt_report_year=2011	33	339	3399	44.19880000	-77.36360000
0000003147	Chalk River Laboratories	Atomic Energy of Canada Limited	Ontario	Chalk River	1 Plant Road	K0J1J0	0	"All Other Prof., Scientific & Tech. Services"	http://stds.statcan.gc.ca/naics-scian/2007/cs-rc-eng.asp?criteria=541990	0.15	-99.00	http://www.ec.gc.ca/inrp-npri/donnees-data/index.cfm?do=facility_substance_summary&amp;amp;amp;lang=En&amp;amp;amp;opt_npri_id=0000003147&amp;amp;amp;opt_report_year=2011	54	541	5419	46.05540000	-77.36280000
0000002537	Clean Harbors Canada, Inc	Clean Harbors Canada, Inc.	Ontario	Corunna	4090 Telfer Road North	N0N1G0	0	Waste Treatment & Disposal	http://stds.statcan.gc.ca/naics-scian/2007/cs-rc-eng.asp?criteria=562210	0.80	0.00	http://www.ec.gc.ca/inrp-npri/donnees-data/index.cfm?do=facility_substance_summary&amp;amp;amp;lang=En&amp;amp;amp;opt_npri_id=0000002537&amp;amp;amp;opt_report_year=2011	56	562	5622	42.88040000	-82.29710000
0000004768	Algonquin Power Energy From Waste Inc.	Algonquin Power Energy From Waste Inc.	Ontario	Brampton	7656 Bramalea Road	L6T5M5	0	Waste Treatment & Disposal	http://stds.statcan.gc.ca/naics-scian/2007/cs-rc-eng.asp?criteria=562210	1.50	-99.00	http://www.ec.gc.ca/inrp-npri/donnees-data/index.cfm?do=facility_substance_summary&amp;amp;amp;lang=En&amp;amp;amp;opt_npri_id=0000004768&amp;amp;amp;opt_report_year=2011	56	562	5622	43.69700000	-79.68260000
0000011033	Fluorescent Lamp Recyclers	Aevitas Inc .	Ontario	Ayr	75 Wanless Court	N0B1E0	0	All Other Waste Management Services	http://stds.statcan.gc.ca/naics-scian/2007/cs-rc-eng.asp?criteria=562990	0.58	-99.00	http://www.ec.gc.ca/inrp-npri/donnees-data/index.cfm?do=facility_substance_summary&amp;amp;amp;lang=En&amp;amp;amp;opt_npri_id=0000011033&amp;amp;amp;opt_report_year=2011	56	562	5629	43.33670000	-80.44800000
0000005015	Energy From Waste Plant	PEI Energy Systems	Prince Edward Island	Charlottetown	40 Riverside Drive	C1A9M2	0	Waste Treatment & Disposal	http://stds.statcan.gc.ca/naics-scian/2007/cs-rc-eng.asp?criteria=562210	3.61	-99.00	http://www.ec.gc.ca/inrp-npri/donnees-data/index.cfm?do=facility_substance_summary&amp;amp;amp;lang=En&amp;amp;amp;opt_npri_id=0000005015&amp;amp;amp;opt_report_year=2011	56	562	5622	46.25170000	-63.10787000
0000002000	Usine de Bouletage de Port-Cartier	ArcelorMittal Mines Canada	Quebec	Port-Cartier	186 Portage des Mousses	G5B2H3	0	Iron Ore Mining	http://stds.statcan.gc.ca/naics-scian/2007/cs-rc-eng.asp?criteria=212210	44.00	-99.00	http://www.ec.gc.ca/inrp-npri/donnees-data/index.cfm?do=facility_substance_summary&amp;amp;amp;lang=En&amp;amp;amp;opt_npri_id=0000002000&amp;amp;amp;opt_report_year=2011	21	212	2122	50.03340000	-66.79100000
0000005459	Mines Wabush - Sept-Iles	Mines Wabush	Quebec	Sept-Îles	1505 Chemin de la Pointe Noire	G4R4L4	0	Iron Ore Mining	http://stds.statcan.gc.ca/naics-scian/2007/cs-rc-eng.asp?criteria=212210	10.73	-99.00	http://www.ec.gc.ca/inrp-npri/donnees-data/index.cfm?do=facility_substance_summary&amp;amp;amp;lang=En&amp;amp;amp;opt_npri_id=0000005459&amp;amp;amp;opt_report_year=2011	21	212	2122	50.16160000	-66.48380000
0000005448	Mine Raglan	Xstrata Canada Corporation - Duplicate	Quebec	Rouyn-Noranda	0 - 120 Avenue de l'Aéroport	J9X5B7	0	Nickel-Copper Ore Mining	http://stds.statcan.gc.ca/naics-scian/2007/cs-rc-eng.asp?criteria=212232	0.08	-99.00	http://www.ec.gc.ca/inrp-npri/donnees-data/index.cfm?do=facility_substance_summary&amp;amp;amp;lang=En&amp;amp;amp;opt_npri_id=0000005448&amp;amp;amp;opt_report_year=2011	21	212	2122	61.69160000	-73.66660000
0000006444	Centrale de Senneterre	Société en Commandite Boralex Énergie	Quebec	Senneterre	160 Avenue 6e	J0Y2M0	0	Other Electric Power Generation	http://stds.statcan.gc.ca/naics-scian/2007/cs-rc-eng.asp?criteria=221119	4.97	-99.00	http://www.ec.gc.ca/inrp-npri/donnees-data/index.cfm?do=facility_substance_summary&amp;amp;amp;lang=En&amp;amp;amp;opt_npri_id=0000006444&amp;amp;amp;opt_report_year=2011	22	221	2211	48.38560000	-77.22130000
0000008642	Centrale de Cogénération À la Biomasse	Kruger Énergie Bromptonville S.E.C.	Quebec	Sherbrooke	220 Route de Windsor	J1C0E6	0	Other Electric Power Generation	http://stds.statcan.gc.ca/naics-scian/2007/cs-rc-eng.asp?criteria=221119	12.40	-99.00	http://www.ec.gc.ca/inrp-npri/donnees-data/index.cfm?do=facility_substance_summary&amp;amp;amp;lang=En&amp;amp;amp;opt_npri_id=0000008642&amp;amp;amp;opt_report_year=2011	22	221	2211	45.48080000	-71.95190000
0000005528	Centre d'Épuration Rive-Sud	Ville de Longueuil	Quebec	Longueuil	2999 Charron	J4G1R6	0	Sewage Treatment Facilities	http://stds.statcan.gc.ca/naics-scian/2007/cs-rc-eng.asp?criteria=221320	1.64	-99.00	http://www.ec.gc.ca/inrp-npri/donnees-data/index.cfm?do=facility_substance_summary&amp;amp;amp;lang=En&amp;amp;amp;opt_npri_id=0000005528&amp;amp;amp;opt_report_year=2011	22	221	2213	45.58370000	-73.48620000
0000003571	Station d'Épuration des Eaux Usées Jean-R.-Marcott	Ville de Montreal	Quebec	Montréal	12001 Boulevard Maurice-Duplessis Nord-E	H1C1V3	0	Sewage Treatment Facilities	http://stds.statcan.gc.ca/naics-scian/2007/cs-rc-eng.asp?criteria=221320	35.00	-99.00	http://www.ec.gc.ca/inrp-npri/donnees-data/index.cfm?do=facility_substance_summary&amp;amp;amp;lang=En&amp;amp;amp;opt_npri_id=0000003571&amp;amp;amp;opt_report_year=2011	22	221	2213	45.67220000	-73.52500000
0000005526	Tafisa Canada	Tafisa Canada Inc.	Quebec	Lac-Mégantic	4660 Villeneuve	G6B2C3	0	Particle Board & Fibreboard Mills	http://stds.statcan.gc.ca/naics-scian/2007/cs-rc-eng.asp?criteria=321216	0.19	-99.00	http://www.ec.gc.ca/inrp-npri/donnees-data/index.cfm?do=facility_substance_summary&amp;amp;amp;lang=En&amp;amp;amp;opt_npri_id=0000005526&amp;amp;amp;opt_report_year=2011	32	321	3212	45.58460000	-70.86730000
0000000983	Division Alma	Abibowcanada Inc.	Quebec	Alma	1100 Rue Melançon	G8B5W2	0	Mechanical Pulp Mills	http://stds.statcan.gc.ca/naics-scian/2007/cs-rc-eng.asp?criteria=322111	0.31	1.53	http://www.ec.gc.ca/inrp-npri/donnees-data/index.cfm?do=facility_substance_summary&amp;amp;amp;lang=En&amp;amp;amp;opt_npri_id=0000000983&amp;amp;amp;opt_report_year=2011	32	322	3221	48.56500000	-71.65580000
0000001195	Domtar Usine de Windsor	Domtar Inc.	Quebec	Windsor	609 Rang 12	J1S2L9	0	Chemical Pulp Mills	http://stds.statcan.gc.ca/naics-scian/2007/cs-rc-eng.asp?criteria=322112	1.00	8.24	http://www.ec.gc.ca/inrp-npri/donnees-data/index.cfm?do=facility_substance_summary&amp;amp;amp;lang=En&amp;amp;amp;opt_npri_id=0000001195&amp;amp;amp;opt_report_year=2011	32	322	3221	45.55420000	-71.99580000
0000002948	Site de Témiscaming	Tembec	Quebec	Témiscaming	33 Chemin Kipawa	J0Z3R0	0	Chemical Pulp Mills	http://stds.statcan.gc.ca/naics-scian/2007/cs-rc-eng.asp?criteria=322112	0.38	1.26	http://www.ec.gc.ca/inrp-npri/donnees-data/index.cfm?do=facility_substance_summary&amp;amp;amp;lang=En&amp;amp;amp;opt_npri_id=0000002948&amp;amp;amp;opt_report_year=2011	32	322	3221	46.71110000	-79.09670000
0000002502	Kruger Wayagamack Inc.	Kruger Wayagamack Inc.	Quebec	Trois-Rivières	1 Ile de la Potherie	G9A5E9	0	Paper (except Newsprint) Mills	http://stds.statcan.gc.ca/naics-scian/2007/cs-rc-eng.asp?criteria=322121	15.01	-99.00	http://www.ec.gc.ca/inrp-npri/donnees-data/index.cfm?do=facility_substance_summary&amp;amp;amp;lang=En&amp;amp;amp;opt_npri_id=0000002502&amp;amp;amp;opt_report_year=2011	32	322	3221	46.35830000	-72.51850000
0000003140	Usine de la Tuque	Emballages Rocktenn-Canada, L.P.	Quebec	La Tuque	1000 Chemin de l'Usine	G9X3P8	0	Paperboard Mills	http://stds.statcan.gc.ca/naics-scian/2007/cs-rc-eng.asp?criteria=322130	1.45	-99.00	http://www.ec.gc.ca/inrp-npri/donnees-data/index.cfm?do=facility_substance_summary&amp;amp;amp;lang=En&amp;amp;amp;opt_npri_id=0000003140&amp;amp;amp;opt_report_year=2011	32	322	3221	47.45000000	-72.79170000
0000003897	Raffinerie de Montreal	Suncor Energy Products Partnership	Quebec	Montreal	11701 Sherbrooke Street East	H1B1C3	0	Petroleum Refineries	http://stds.statcan.gc.ca/naics-scian/2007/cs-rc-eng.asp?criteria=324110	1.44	-99.00	http://www.ec.gc.ca/inrp-npri/donnees-data/index.cfm?do=facility_substance_summary&amp;amp;amp;lang=En&amp;amp;amp;opt_npri_id=0000003897&amp;amp;amp;opt_report_year=2011	32	324	3241	45.64170000	-73.51670000
0000004039	Mansonville	Nexkemia Pétrochimie Inc.	Quebec	Mansonville	24 Bellevue	J0E1X0	0	Resin & Synthetic Rubber Mfg.	http://stds.statcan.gc.ca/naics-scian/2007/cs-rc-eng.asp?criteria=325210	0.02	-99.00	http://www.ec.gc.ca/inrp-npri/donnees-data/index.cfm?do=facility_substance_summary&amp;amp;amp;lang=En&amp;amp;amp;opt_npri_id=0000004039&amp;amp;amp;opt_report_year=2011	32	325	3252	45.04860000	-72.38470000
0000005443	Anachemia Canada Co	Anachemia Canada Co	Quebec	Lachine	255 Norman Street	H8R 1A3	0	All Other Misc. Chemical Product Mfg.	http://stds.statcan.gc.ca/naics-scian/2007/cs-rc-eng.asp?criteria=325999	0.05	0.03	http://www.ec.gc.ca/inrp-npri/donnees-data/index.cfm?do=facility_substance_summary&amp;amp;amp;lang=En&amp;amp;amp;opt_npri_id=0000005443&amp;amp;amp;opt_report_year=2011	32	325	3259	45.44880000	-73.66210000
0000005544	Usine de Joliette	Holcim (Canada) Inc.	Quebec	Joliette	966 Chemin des Prairies	J6E6H7	0	Cement Mfg.	http://stds.statcan.gc.ca/naics-scian/2007/cs-rc-eng.asp?criteria=327310	8.61	-99.00	http://www.ec.gc.ca/inrp-npri/donnees-data/index.cfm?do=facility_substance_summary&amp;amp;amp;lang=En&amp;amp;amp;opt_npri_id=0000005544&amp;amp;amp;opt_report_year=2011	32	327	3273	46.02970000	-73.40240000
0000005548	Cimenterie de Saint-Basile	Ciment Québec Inc.	Quebec	Saint-Basile	145 Boulevard du Centenaire	G0A3G0	0	Cement Mfg.	http://stds.statcan.gc.ca/naics-scian/2007/cs-rc-eng.asp?criteria=327310	5.90	-99.00	http://www.ec.gc.ca/inrp-npri/donnees-data/index.cfm?do=facility_substance_summary&amp;amp;amp;lang=En&amp;amp;amp;opt_npri_id=0000005548&amp;amp;amp;opt_report_year=2011	32	327	3273	46.74470000	-71.81260000
0000005474	Cimenterie de Saint-Constant	Lafarge Canada Inc.	Quebec	Saint-Constant	1 Lafarge Road	J5A2G4	0	Cement Mfg.	http://stds.statcan.gc.ca/naics-scian/2007/cs-rc-eng.asp?criteria=327310	1.59	-99.00	http://www.ec.gc.ca/inrp-npri/donnees-data/index.cfm?do=facility_substance_summary&amp;amp;amp;lang=En&amp;amp;amp;opt_npri_id=0000005474&amp;amp;amp;opt_report_year=2011	32	327	3273	45.33860000	-73.52180000
0000005591	Usine de Bedford	Graymont (QC) Inc.	Quebec	Bedford	1015 de la Carriere Road	J0J1A0	0	Lime Mfg.	http://stds.statcan.gc.ca/naics-scian/2007/cs-rc-eng.asp?criteria=327410	2.46	-99.00	http://www.ec.gc.ca/inrp-npri/donnees-data/index.cfm?do=facility_substance_summary&amp;amp;amp;lang=En&amp;amp;amp;opt_npri_id=0000005591&amp;amp;amp;opt_report_year=2011	32	327	3274	45.11230000	-73.01290000
0000003649	Aciérie - Arcelormittal Contrecoeur	ArcelorMittal Montréal Inc.	Quebec	Contrecoeur	3900 Route des Aciéries	J0L1C0	0	Iron & Steel Mills & Ferro-Alloy Mfg.	http://stds.statcan.gc.ca/naics-scian/2007/cs-rc-eng.asp?criteria=331110	5.29	-99.00	http://www.ec.gc.ca/inrp-npri/donnees-data/index.cfm?do=facility_substance_summary&amp;amp;amp;lang=En&amp;amp;amp;opt_npri_id=0000003649&amp;amp;amp;opt_report_year=2011	33	331	3311	45.83470000	-73.24720000
0000004806	Qit Complexe Métallurgique de Sorel-Tracy	Qit-Fer et Titane Inc	Quebec	Sorel-Tracy	1625 Marie-Victorin	J3R1M6	0	Iron & Steel Mills & Ferro-Alloy Mfg.	http://stds.statcan.gc.ca/naics-scian/2007/cs-rc-eng.asp?criteria=331110	3.49	-99.00	http://www.ec.gc.ca/inrp-npri/donnees-data/index.cfm?do=facility_substance_summary&amp;amp;amp;lang=En&amp;amp;amp;opt_npri_id=0000004806&amp;amp;amp;opt_report_year=2011	33	331	3311	46.04470000	-73.13920000
0000002986	Arcelormittal Contrecoeur Ouest	ArcelorMittal Montréal Inc.	Quebec	Contrecoeur	2050 Route des Aciéries	J0L1C0	0	Iron & Steel Mills & Ferro-Alloy Mfg.	http://stds.statcan.gc.ca/naics-scian/2007/cs-rc-eng.asp?criteria=331110	21.12	-99.00	http://www.ec.gc.ca/inrp-npri/donnees-data/index.cfm?do=facility_substance_summary&amp;amp;amp;lang=En&amp;amp;amp;opt_npri_id=0000002986&amp;amp;amp;opt_report_year=2011	33	331	3311	45.82060000	-73.26610000
0000003062	Usine Grande-Baie	Rio Tinto Alcan	Quebec	La Baie	5000 Route du Petit-Parc	G7B4G9	0	Primary Production of Alumina & Aluminum	http://stds.statcan.gc.ca/naics-scian/2007/cs-rc-eng.asp?criteria=331313	6.19	-99.00	http://www.ec.gc.ca/inrp-npri/donnees-data/index.cfm?do=facility_substance_summary&amp;amp;amp;lang=En&amp;amp;amp;opt_npri_id=0000003062&amp;amp;amp;opt_report_year=2011	33	331	3313	48.30580000	-70.92670000
0000002978	Usine Vaudreuil	Rio Tinto Alcan	Quebec	Jonquiere	1955 Boulevard Mellon	G7S4L2	0	Primary Production of Alumina & Aluminum	http://stds.statcan.gc.ca/naics-scian/2007/cs-rc-eng.asp?criteria=331313	0.19	-99.00	http://www.ec.gc.ca/inrp-npri/donnees-data/index.cfm?do=facility_substance_summary&amp;amp;amp;lang=En&amp;amp;amp;opt_npri_id=0000002978&amp;amp;amp;opt_report_year=2011	33	331	3313	48.42570000	-71.17180000
0000003406	Usine Arvida	Rio Tinto Alcan	Quebec	Saguenay	1955 Boulevard Mellon	G7S4L2	0	Primary Production of Alumina & Aluminum	http://stds.statcan.gc.ca/naics-scian/2007/cs-rc-eng.asp?criteria=331313	6.02	-99.00	http://www.ec.gc.ca/inrp-npri/donnees-data/index.cfm?do=facility_substance_summary&amp;amp;amp;lang=En&amp;amp;amp;opt_npri_id=0000003406&amp;amp;amp;opt_report_year=2011	33	331	3313	48.42740000	-71.15990000
0000005510	Usine Alma	Rio Tinto Alcan	Quebec	Alma	3000 des Pins	G8B5W2	0	Primary Production of Alumina & Aluminum	http://stds.statcan.gc.ca/naics-scian/2007/cs-rc-eng.asp?criteria=331313	6.47	-99.00	http://www.ec.gc.ca/inrp-npri/donnees-data/index.cfm?do=facility_substance_summary&amp;amp;amp;lang=En&amp;amp;amp;opt_npri_id=0000005510&amp;amp;amp;opt_report_year=2011	33	331	3313	48.58370000	-71.68890000
0000003916	Ccr Refinery	Xstrata Canada Corporation	Quebec	Montréal-Est	0 - 220 Avenue Durocher Nord-Ouest	H1B5H6	0	Non-Ferrous (except Al) Smelting & Refining	http://stds.statcan.gc.ca/naics-scian/2007/cs-rc-eng.asp?criteria=331410	6.14	-99.00	http://www.ec.gc.ca/inrp-npri/donnees-data/index.cfm?do=facility_substance_summary&amp;amp;amp;lang=En&amp;amp;amp;opt_npri_id=0000003916&amp;amp;amp;opt_report_year=2011	33	331	3314	45.62830000	-73.51250000
0000002938	Société en Commandite Revenu Noranda - Valleyfield	Société en Commandite Revenu Noranda	Quebec	Salaberry de Valleyfield	860 Boulevard Gérard Cadieux	J6T 6L4	0	Non-Ferrous (except Al) Smelting & Refining	http://stds.statcan.gc.ca/naics-scian/2007/cs-rc-eng.asp?criteria=331410	26.21	-99.00	http://www.ec.gc.ca/inrp-npri/donnees-data/index.cfm?do=facility_substance_summary&amp;amp;amp;lang=En&amp;amp;amp;opt_npri_id=0000002938&amp;amp;amp;opt_report_year=2011	33	331	3314	45.22830000	-74.09810000
0000004799	Magotteaux Ltée	Magotteaux Ltée.	Quebec	Magog	601 Rue Champlain	J1X2N1	0	Iron Foundries	http://stds.statcan.gc.ca/naics-scian/2007/cs-rc-eng.asp?criteria=331511	1.61	-99.00	http://www.ec.gc.ca/inrp-npri/donnees-data/index.cfm?do=facility_substance_summary&amp;amp;amp;lang=En&amp;amp;amp;opt_npri_id=0000004799&amp;amp;amp;opt_report_year=2011	33	331	3315	45.27170000	-72.14440000
0000004797	Les Forges de Sorel Cie - St-Joseph-de-Sorel	Les Forges de Sorel Cie	Quebec	St-Joseph-de-Sorel	100 McCarthy	J3R3M8	0	Steel Foundries	http://stds.statcan.gc.ca/naics-scian/2007/cs-rc-eng.asp?criteria=331514	0.10	-99.00	http://www.ec.gc.ca/inrp-npri/donnees-data/index.cfm?do=facility_substance_summary&amp;amp;amp;lang=En&amp;amp;amp;opt_npri_id=0000004797&amp;amp;amp;opt_report_year=2011	33	331	3315	46.04500000	-73.12390000
0000004402	La Corporation Newalta Vsc	La Corporation Newalta	Quebec	Ste Catherine	1200 Rue Garnier	J5C1B4	0	Non-Ferrous Foundries (except Die-Casting)	http://stds.statcan.gc.ca/naics-scian/2007/cs-rc-eng.asp?criteria=331529	9.58	-99.00	http://www.ec.gc.ca/inrp-npri/donnees-data/index.cfm?do=facility_substance_summary&amp;amp;amp;lang=En&amp;amp;amp;opt_npri_id=0000004402&amp;amp;amp;opt_report_year=2011	33	331	3315	45.40000000	-73.60000000
0000003623	Fonderie Horne	Xstrata Canada Corporation	Quebec	Rouyn-Noranda	101 Avenue Portelance	J9X5B6	0	Non-Ferrous Foundries (except Die-Casting)	http://stds.statcan.gc.ca/naics-scian/2007/cs-rc-eng.asp?criteria=331529	28.20	-99.00	http://www.ec.gc.ca/inrp-npri/donnees-data/index.cfm?do=facility_substance_summary&amp;amp;amp;lang=En&amp;amp;amp;opt_npri_id=0000003623&amp;amp;amp;opt_report_year=2011	33	331	3315	48.25420000	-79.01670000
0000001816	Osram Sylvania Ltée	Osram Sylvania	Quebec	Drummondville	1 Sylvan	J2C2S8	0	Electric Lamp Bulb & Parts Mfg.	http://stds.statcan.gc.ca/naics-scian/2007/cs-rc-eng.asp?criteria=335110	2.95	-99.00	http://www.ec.gc.ca/inrp-npri/donnees-data/index.cfm?do=facility_substance_summary&amp;amp;amp;lang=En&amp;amp;amp;opt_npri_id=0000001816&amp;amp;amp;opt_report_year=2011	33	335	3351	45.87330000	-72.49860000
0000005561	Installations Portuaires et Services Ferroviaires	Rio Tinto Alcan	Quebec	La Baie	262 1ère	G7B3R1	0	Short-Haul Freight Rail Transportation	http://stds.statcan.gc.ca/naics-scian/2007/cs-rc-eng.asp?criteria=482112	0.46	-99.00	http://www.ec.gc.ca/inrp-npri/donnees-data/index.cfm?do=facility_substance_summary&amp;amp;amp;lang=En&amp;amp;amp;opt_npri_id=0000005561&amp;amp;amp;opt_report_year=2011	48	482	4821	48.33350000	-70.87840000
0000005546	Incinérateur de Lévis	Ville de Lévis	Quebec	Lévis	259 Chemin des Îles	G6V7M5	0	Waste Treatment & Disposal	http://stds.statcan.gc.ca/naics-scian/2007/cs-rc-eng.asp?criteria=562210	0.96	-99.00	http://www.ec.gc.ca/inrp-npri/donnees-data/index.cfm?do=facility_substance_summary&amp;amp;amp;lang=En&amp;amp;amp;opt_npri_id=0000005546&amp;amp;amp;opt_report_year=2011	56	562	5622	46.75070000	-71.17620000
0000005449	Clean Harbors Mercier, Inc.	Clean Harbors Canada, Inc.	Quebec	Mercier	1294 Boulevard Sainte-Marguerite	J6R2L1	0	Waste Treatment & Disposal	http://stds.statcan.gc.ca/naics-scian/2007/cs-rc-eng.asp?criteria=562210	105.23	-99.00	http://www.ec.gc.ca/inrp-npri/donnees-data/index.cfm?do=facility_substance_summary&amp;amp;amp;lang=En&amp;amp;amp;opt_npri_id=0000005449&amp;amp;amp;opt_report_year=2011	56	562	5622	45.28680000	-73.73140000
0000002079	Poplar River Power Station	Saskatchewan Power Corporation	Saskatchewan	Coronach	0 -	S0H0Z0	0	Fossil-Fuel Electric Power Generation	http://stds.statcan.gc.ca/naics-scian/2007/cs-rc-eng.asp?criteria=221112	186.00	-99.00	http://www.ec.gc.ca/inrp-npri/donnees-data/index.cfm?do=facility_substance_summary&amp;amp;amp;lang=En&amp;amp;amp;opt_npri_id=0000002079&amp;amp;amp;opt_report_year=2011	22	221	2211	49.04720000	-105.48830000
0000002081	Boundary Dam Power Station	Saskatchewan Power Corporation	Saskatchewan	Estevan		S4A2A6	0	Fossil-Fuel Electric Power Generation	http://stds.statcan.gc.ca/naics-scian/2007/cs-rc-eng.asp?criteria=221112	256.00	-99.00	http://www.ec.gc.ca/inrp-npri/donnees-data/index.cfm?do=facility_substance_summary&amp;amp;amp;lang=En&amp;amp;amp;opt_npri_id=0000002081&amp;amp;amp;opt_report_year=2011	22	221	2211	49.04220000	-103.03230000
0000002083	Shand Power Station	Saskatchewan Power Corporation	Saskatchewan	Estevan	0 -	S4A2K9	0	Fossil-Fuel Electric Power Generation	http://stds.statcan.gc.ca/naics-scian/2007/cs-rc-eng.asp?criteria=221112	106.00	-99.00	http://www.ec.gc.ca/inrp-npri/donnees-data/index.cfm?do=facility_substance_summary&amp;amp;amp;lang=En&amp;amp;amp;opt_npri_id=0000002083&amp;amp;amp;opt_report_year=2011	22	221	2211	49.08790000	-102.86400000
0000002740	Evraz Inc Na Canada - Regina Facilities	Evraz Inc Na Canada	Saskatchewan	Regina	100 Armour Road	S4P3C7	0	Iron & Steel Mills & Ferro-Alloy Mfg.	http://stds.statcan.gc.ca/naics-scian/2007/cs-rc-eng.asp?criteria=331110	108.05	0.62	http://www.ec.gc.ca/inrp-npri/donnees-data/index.cfm?do=facility_substance_summary&amp;amp;amp;lang=En&amp;amp;amp;opt_npri_id=0000002740&amp;amp;amp;opt_report_year=2011	33	331	3311	50.51560000	-104.62580000
0000004048	Co-Op Refinery Complex	Consumers' Co-Operative Refineries Limited	Saskatchewan	Regina	550 East 9th Avenue North	S4N7B3	0	Petroleum Refineries	http://stds.statcan.gc.ca/naics-scian/2007/cs-rc-eng.asp?criteria=324110	24.36	-99.00	http://www.ec.gc.ca/inrp-npri/donnees-data/index.cfm?do=facility_substance_summary&amp;amp;amp;lang=En&amp;amp;amp;opt_npri_id=0000004048&amp;amp;amp;opt_report_year=2011	32	324	3241	50.48430000	-104.57940000
